[{"OBJECT_NAME":"FLOCK 4Q-21","OBJECT_ID":"2023-174CB","EPOCH":"2026-03-09T16:54:09.057600","MEAN_MOTION":15.57402591,"ECCENTRICITY":0.00059277,"INCLINATION":97.3918,"RA_OF_ASC_NODE":160.0322,"ARG_OF_PERICENTER":156.3296,"MEAN_ANOMALY":203.8233,"EPHEMERIS_TYPE":0,"CLASSIFICATION_TYPE":"U","NORAD_CAT_ID":58329,"ELEMENT_SET_NO":999,"REV_AT_EPOCH":13049,"BSTAR":0.00065948974,"MEAN_MOTION_DOT":0.00048452,"MEAN_MOTION_DDOT":0},{"OBJECT_NAME":"COSMOS 1743","OBJECT_ID":"1986-034A","EPOCH":"2026-03-09T10:47:12.341760","MEAN_MOTION":15.58526486,"ECCENTRICITY":0.0001656,"INCLINATION":82.5296,"RA_OF_ASC_NODE":74.083,"ARG_OF_PERICENTER":296.6457,"MEAN_ANOMALY":63.4629,"EPHEMERIS_TYPE":0,"CLASSIFICATION_TYPE":"U","NORAD_CAT_ID":16719,"ELEMENT_SET_NO":999,"REV_AT_EPOCH":18021,"BSTAR":0.00044928259,"MEAN_MOTION_DOT":0.00034437,"MEAN_MOTION_DDOT":0}]
